OBJECT_NAME,OBJECT_ID,EPOCH,MEAN_MOTION,ECCENTRICITY,INCLINATION,RA_OF_ASC_NODE,ARG_OF_PERICENTER,MEAN_ANOMALY,EPHEMERIS_TYPE,CLASSIFICATION_TYPE,NORAD_CAT_ID,ELEMENT_SET_NO,REV_AT_EPOCH,BSTAR,MEAN_MOTION_DOT,MEAN_MOTION_DDOT
BEIDOU-3S IGSO-1S (C31),2015-019A,2026-06-10T20:33:56.597184,1.00251826,.00387139,49.2085,295.5396,190.8479,173.2945,0,U,40549,999,4101,0,-.178E-5,0
GPS BIIF-10 (PRN 08),2015-033A,2026-06-10T17:44:34.074528,2.00556498,.01150424,53.9875,267.3525,30.2064,330.4712,0,U,40730,999,7986,0,-.29E-6,0
BEIDOU-3S M2S (C58),2015-037A,2026-06-09T19:20:41.872416,1.86232343,.00080833,54.8786,302.3008,261.0126,98.8850,0,U,40748,999,7398,0,-.61E-6,0
BEIDOU-3S M1S (C57),2015-037B,2026-06-10T13:13:46.226208,1.86254784,.00035784,54.8737,302.2626,61.0536,298.9696,0,U,40749,999,7400,0,-.64E-6,0
GSAT0205 (GALILEO 9),2015-045A,2026-05-24T07:17:44.873376,1.67409242,.00064058,54.9357,222.4171,263.0112,96.9692,0,U,40889,999,6656,0,-.14E-6,0
GSAT0206 (GALILEO 10),2015-045B,2026-06-09T19:57:39.153024,1.70473928,.00016825,54.9468,221.8077,339.7025,20.3746,0,U,40890,999,6691,0,.48E-6,0
BEIDOU-3S IGSO-2S (C56),2015-053A,2026-06-10T18:07:21.790848,1.00261032,.00654009,49.2318,258.8610,191.8182,175.7790,0,U,40938,999,3929,0,-.15E-5,0
GPS BIIF-11 (PRN 10),2015-062A,2026-06-09T07:11:53.760192,2.00566961,.01116543,56.9540,31.1152,231.1327,127.9172,0,U,41019,999,7767,0,-.64E-6,0
GSAT-15 (GAGAN/PRN 139),2015-065A,2026-06-11T01:42:42.869664,1.00270477,.00040878,0.0859,266.0295,159.7189,312.8516,0,U,41028,999,3873,0,-.24E-5,0
GSAT0209 (GALILEO 12),2015-079A,2026-06-09T23:59:36.743712,1.70473707,.00054004,55.8233,101.4592,340.4931,19.4557,0,U,41174,999,6465,0,.2E-6,0
GSAT0208 (GALILEO 11),2015-079B,2026-06-09T15:12:09.629856,1.70473549,.00048989,55.8212,101.4660,340.3551,19.5970,0,U,41175,999,6506,0,.22E-6,0
IRNSS-1E,2016-003A,2026-06-09T15:34:40.861056,1.00268584,.00179263,33.2186,59.8594,179.3195,4.1979,0,U,41241,999,3800,0,-.299E-5,0
GPS BIIF-12 (PRN 32),2016-007A,2026-06-07T21:28:05.581056,2.00552243,.00962315,55.5185,89.8281,247.4008,111.5747,0,U,41328,999,7565,0,.8E-7,0
COSMOS 2514 (751),2016-008A,2026-06-10T17:10:21.933696,2.13102560,.00110303,65.0259,313.2287,197.5647,162.3913,0,U,41330,999,8048,0,-.4E-6,0
BEIDOU-2 IGSO-6 (C13),2016-021A,2026-06-10T15:13:38.494848,1.00260596,.00570883,60.2161,38.1061,231.5348,311.0293,0,U,41434,999,3741,0,-.157E-5,0
IRNSS-1G,2016-027A,2026-06-10T19:02:24.577728,1.00269301,.00075187,5.1824,97.6208,353.4220,223.2768,0,U,41469,999,3711,0,-.318E-5,0
GSAT0211 (GALILEO 14),2016-030A,2026-06-07T23:56:39.039648,1.70473969,.00027771,55.0982,221.9480,325.1627,34.9006,0,U,41549,999,6251,0,.43E-6,0
GSAT0210 (GALILEO 13),2016-030B,2026-06-08T20:11:48.224832,1.70474105,.00030682,55.0968,221.9227,229.8535,130.2012,0,U,41550,999,6252,0,.45E-6,0
BEIDOU-2 G7 (C03),2016-037A,2026-06-11T00:04:57.169344,1.00267431,.00070828,1.7034,69.2647,3.5009,298.3387,0,U,41586,999,682,0,-.336E-5,0
EUTELSAT 117 WEST B (WAAS/PRN 131),2016-038B,2026-06-10T23:00:07.663392,1.00272883,.00002551,0.0090,159.3478,217.2674,110.7257,0,U,41589,999,3660,0,.6E-7,0
GSAT0207 (GALILEO 15),2016-069A,2026-06-09T02:52:30.794304,1.70473627,.00054236,55.4940,101.3095,327.7880,32.1516,0,U,41859,999,5926,0,.23E-6,0
GSAT0212 (GALILEO 16),2016-069B,2026-06-10T03:30:48.933216,1.70473868,.00046789,55.4922,101.2762,355.7318,4.2331,0,U,41860,999,5953,0,.18E-6,0
GSAT0213 (GALILEO 17),2016-069C,2026-06-09T08:10:18.151104,1.70474169,.00051231,55.4937,101.3064,311.5883,48.3399,0,U,41861,999,5938,0,.22E-6,0
GSAT0214 (GALILEO 18),2016-069D,2026-06-08T21:36:08.572608,1.70473875,.0004328,55.4924,101.3112,318.2384,41.7019,0,U,41862,999,5950,0,.24E-6,0
SES-15 (WAAS/PRN 133),2017-026A,2026-06-08T12:46:06.263616,1.00270105,.00005164,0.0197,332.0701,88.0806,259.1449,0,U,42709,999,734,0,.76E-6,0
QZS-2 (QZSS/PRN 194),2017-028A,2026-06-09T12:56:43.810944,1.00285994,.07605811,39.4388,243.2674,269.1776,81.0235,0,U,42738,999,754,0,-.147E-5,0
QZS-3 (QZSS/PRN 199),2017-048A,2026-06-11T00:09:41.713920,1.00267968,.00025629,0.0636,171.4245,277.5648,299.7948,0,U,42917,999,3219,0,-.331E-5,0
COSMOS 2522 (752),2017-055A,2026-06-10T02:01:05.325024,2.13102025,.00106792,64.0782,192.1263,240.0455,119.9210,0,U,42939,999,6782,0,.114E-5,0
QZS-4 (QZSS/PRN 195),2017-062A,2026-06-10T08:46:31.970784,1.00252759,.07451425,40.1123,343.5704,271.6178,272.7130,0,U,42965,999,3173,0,-.314E-5,0
BEIDOU-3 M1 (C19),2017-069A,2026-06-10T03:39:44.209728,1.86231422,.00106003,56.6854,63.3171,324.5878,35.3649,0,U,43001,999,5847,0,-.5E-6,0
BEIDOU-3 M2 (C20),2017-069B,2026-06-10T02:11:29.945184,1.86231013,.0009294,56.6850,63.3549,348.6760,11.3261,0,U,43002,999,5846,0,-.5E-6,0
